school_name,address,postal_code,planning_area,town,latitude,longitude
"Admiralty Primary School","11 WOODLANDS CIRCLE ADMIRALTY PRIMARY SCHOOL SINGAPORE 738907","738907","WOODLANDS","WOODLANDS","1.4426347903311","103.800040119743"
"Ahmad Ibrahim Primary School","10 YISHUN STREET 11 AHMAD IBRAHIM PRIMARY SCHOOL SINGAPORE 768643","768643","YISHUN","YISHUN","1.43315271543517","103.832942401086"
"Ai Tong School","100 BRIGHT HILL DRIVE AI TONG SCHOOL SINGAPORE 579646","579646","BISHAN","BISHAN","1.3605834338904","103.833020333986"
"Alexandra Primary School","2A PRINCE CHARLES CRESCENT ALEXANDRA PRIMARY SCHOOL SINGAPORE 159016","159016","BUKIT MERAH","BUKIT MERAH","1.29133439161334","103.824424680531"
"Anchor Green Primary School","31 ANCHORVALE DRIVE ANCHOR GREEN PRIMARY SCHOOL SINGAPORE 544969","544969","SENGKANG","SENGKANG","1.39036998654612","103.887165375933"
"Anderson Primary School","19 ANG MO KIO AVENUE 9 ALPHAJOY STUDENT CARE CENTRE (ANDERSON PRIMARY) SINGAPORE 569785","569785","ANG MO KIO","ANG MO KIO","1.38419941907925","103.841411716006"
"Ang Mo Kio Primary School","20 ANG MO KIO AVENUE 3 ANG MO KIO PRIMARY SCHOOL SINGAPORE 569920","569920","ANG MO KIO","ANG MO KIO","1.36932176584608","103.839630858752"
"Anglo-Chinese School (Junior)","16 WINSTEDT ROAD ANGLO-CHINESE SCHOOL (JUNIOR) SINGAPORE 227988","227988","CENTRAL AREA","CENTRAL AREA","1.30935041274966","103.840950265464"
"Anglo-Chinese School (Primary)","50 BARKER ROAD ANGLO-CHINESE SCHOOL (PRIMARY) SINGAPORE 309918","309918","CENTRAL AREA","CENTRAL AREA","1.31837054523521","103.835609732354"
"Angsana Primary School","51 TAMPINES STREET 61 ANGSANA PRIMARY SCHOOL SINGAPORE 528565","528565","TAMPINES","TAMPINES","1.36360590588314","103.9389409004"
"Beacon Primary School","36 BUKIT PANJANG RING ROAD BEACON PRIMARY SCHOOL SINGAPORE 679944","679944","BUKIT PANJANG","BUKIT PANJANG","1.38394936211823","103.773632022975"
"Bedok Green Primary School","1 BEDOK SOUTH AVENUE 2 BEDOK GREEN PRIMARY SCHOOL SINGAPORE 469317","469317","BEDOK","BEDOK","1.32344593287992","103.937878976352"
"Bendemeer Primary School","91 BENDEMEER ROAD BENDEMEER PRIMARY SCHOOL SINGAPORE 339948","339948","KALLANG/WHAMPOA","KALLANG/WHAMPOA","1.32181250780475","103.865404167629"
"Blangah Rise Primary School","91 TELOK BLANGAH HEIGHTS BLANGAH RISE PRIMARY SCHOOL SINGAPORE 109100","109100","BUKIT MERAH","BUKIT MERAH","1.27612047924037","103.808628535239"
"Boon Lay Garden Primary School","20 BOON LAY DRIVE BIG HEART STUDENT CARE (BOON LAY GARDEN PRIMARY SCHOOL) SINGAPORE 649930","649930","JURONG WEST","JURONG WEST","1.34284013791617","103.712858381937"
"Bukit Panjang Primary School","109 CASHEW ROAD ACE @ WORK ENRICHMENT PTE LTD (BT PANJANG PRIMARY) SINGAPORE 679676","679676","BUKIT PANJANG","BUKIT PANJANG","1.37350089986584","103.769417337654"
"Bukit Timah Primary School","111 LORONG KISMIS AFTERSCHOOL @ BUKIT TIMAH PRIMARY SCHOOL SINGAPORE 598112","598112","BUKIT TIMAH","BUKIT TIMAH","1.3377498622588","103.766855344779"
"Bukit View Primary School","18 BUKIT BATOK STREET 21 BUKIT VIEW PRIMARY SCHOOL SINGAPORE 659634","659634","BUKIT BATOK","BUKIT BATOK","1.34586054788695","103.75366641455"
"Canberra Primary School","21 ADMIRALTY DRIVE CANBERRA PRIMARY SCHOOL SINGAPORE 757714","757714","SEMBAWANG","SEMBAWANG","1.45125024371543","103.815858858929"
"Canossa Catholic Primary School","1 SALLIM ROAD CANOSSA CATHOLIC PRIMARY SCHOOL SINGAPORE 387621","387621","GEYLANG","GEYLANG","1.32664424544839","103.882227964852"
"Cantonment Primary School","1 CANTONMENT CLOSE CANTONMENT PRIMARY SCHOOL SINGAPORE 088256","088256","BUKIT MERAH","BUKIT MERAH","1.27547252623201","103.839962631748"
"Casuarina Primary School","30 PASIR RIS STREET 41 CASUARINA PRIMARY SCHOOL SINGAPORE 518935","518935","PASIR RIS","PASIR RIS","1.37246063927999","103.957020286115"
"Catholic High School (Primary Section)","9 BISHAN STREET 22 CATHOLIC HIGH SCHOOL SINGAPORE 579767","579767","BISHAN","BISHAN","1.3547230747166","103.844874676599"
"Cedar Primary School","15 CEDAR AVENUE BIG HEART STUDENT CARE (CEDAR PRIMARY SCHOOL) SINGAPORE 349700","349700","TOA PAYOH","TOA PAYOH","1.33566084356265","103.87562006259"
"Changkat Primary School","11 SIMEI STREET 3 CHANGKAT PRIMARY SCHOOL SINGAPORE 529896","529896","TAMPINES","TAMPINES","1.34023163951633","103.952080114035"
"CHIJ (Katong) Primary","17 MARTIA ROAD CHIJ (KATONG) PRIMARY SINGAPORE 424821","424821","BEDOK","BEDOK","1.30648535277087","103.911105620496"
"CHIJ (Kellock)","1 BUKIT TERESA ROAD CHIJ (KELLOCK) SINGAPORE 099757","099757","BUKIT MERAH","BUKIT MERAH","1.275022722964","103.828157564896"
"CHIJ Our Lady of Good Counsel","2C BURGHLEY DRIVE CHIJ OUR LADY OF GOOD COUNSEL SINGAPORE 558979","558979","SERANGOON","SERANGOON","1.35742952269615","103.864009397373"
"CHIJ Our Lady of the Nativity","1257 UPPER SERANGOON ROAD CHIJ OUR LADY OF THE NATIVITY SINGAPORE 534793","534793","HOUGANG","HOUGANG","1.37330297140128","103.897575728303"
"CHIJ Our Lady Queen of Peace","4 CHESTNUT DRIVE CHIJ OUR LADY QUEEN OF PEACE SINGAPORE 679287","679287","BUKIT PANJANG","BUKIT PANJANG","1.366603668561","103.767412204602"
"CHIJ Primary (Toa Payoh)","628 LORONG 1 TOA PAYOH CHIJ PRIMARY (TOA PAYOH) SINGAPORE 319765","319765","TOA PAYOH","TOA PAYOH","1.33275264711587","103.841847263786"
"CHIJ St. Nicholas Girls' School (Primary Section)","501 ANG MO KIO STREET 13 CHIJ SAINT NICHOLAS GIRLS' SCHOOL SINGAPORE 569405","569405","ANG MO KIO","ANG MO KIO","1.37347687878916","103.834253269436"
"Chongfu School","170 YISHUN AVENUE 6 CHONGFU SCHOOL SINGAPORE 768959","768959","YISHUN","YISHUN","1.43839562897006","103.839309173817"
"Chongzheng Primary School","1 TAMPINES STREET 21 BIG HEART STUDENT CARE (CHONGZHENG PRIMARY SCHOOL) SINGAPORE 529392","529392","TAMPINES","TAMPINES","1.35061130568554","103.951317297552"
"Chua Chu Kang Primary School","20 CHOA CHU KANG AVENUE 2 CHUA CHU KANG PRIMARY SCHOOL SINGAPORE 689905","689905","CHOA CHU KANG","CHOA CHU KANG","1.37775890093367","103.741832917421"
"Clementi Primary School","8 CLEMENTI AVENUE 3 CLEMENTI PRIMARY SCHOOL SINGAPORE 129903","129903","CLEMENTI","CLEMENTI","1.31506321827875","103.763144493687"
"Compassvale Primary School","21 COMPASSVALE STREET COMPASSVALE PRIMARY SCHOOL SINGAPORE 545091","545091","SENGKANG","SENGKANG","1.39444529636566","103.897812229905"
"Concord Primary School","3 CHOA CHU KANG AVENUE 4 BIG HEART STUDENT CARE (CONCORD PRIMARY SCHOOL) SINGAPORE 689814","689814","CHOA CHU KANG","CHOA CHU KANG","1.38026516111464","103.736554295636"
"Corporation Primary School","31 JURONG WEST STREET 24 ACE @ WORK ENRICHMENT PTE LTD (CORPORATION PRIMARY) SINGAPORE 648347","648347","JURONG WEST","JURONG WEST","1.35148548772662","103.707578404944"
"Damai Primary School","52 BEDOK RESERVOIR CRESCENT BIG HEART STUDENT CARE @ DAMAI SINGAPORE 479226","479226","BEDOK","BEDOK","1.33524602829747","103.921286435321"
"Dazhong Primary School","35 BUKIT BATOK STREET 31 DAZHONG PRIMARY SCHOOL SINGAPORE 659441","659441","BUKIT BATOK","BUKIT BATOK","1.3591797447277","103.74847210784"
"De La Salle School","11 CHOA CHU KANG STREET 52 DE LA SALLE SCHOOL SINGAPORE 689285","689285","CHOA CHU KANG","CHOA CHU KANG","1.3947078296399","103.743201812831"
"East Spring Primary School","31 TAMPINES STREET 33 EAST SPRING PRIMARY SCHOOL SINGAPORE 529258","529258","TAMPINES","TAMPINES","1.35268400746357","103.961676849165"
"Edgefield Primary School","41 EDGEFIELD PLAINS EDGEFIELD PRIMARY SCHOOL SINGAPORE 828869","828869","PUNGGOL","PUNGGOL","1.40009139510996","103.907847599114"
"Elias Park Primary School","11 PASIR RIS STREET 52 AFTERSCHOOL @ ELIAS PARK PRIMARY SCHOOL SINGAPORE 518866","518866","PASIR RIS","PASIR RIS","1.37505696315817","103.945289416873"
"Endeavour Primary School","10 ADMIRALTY LINK COMMIT LEARNING SCHOOLHOUSE @ ENDEAVOUR PRIMARY SINGAPORE 757521","757521","SEMBAWANG","SEMBAWANG","1.45388170417263","103.817174701639"
"Evergreen Primary School","31 WOODLANDS CIRCLE BIG HEART STUDENT CARE @ EVERGREEN SINGAPORE 738908","738908","WOODLANDS","WOODLANDS","1.44414835451585","103.794545295922"
"Fairfield Methodist School (Primary)","100 DOVER ROAD COMMIT LEARNING SCHOOLHOUSE @ FAIRFIELD METHODIST SCHOOL (PRIMARY) SINGAPORE 139648","139648","QUEENSTOWN","QUEENSTOWN","1.30100441916733","103.785455606827"
"Farrer Park Primary School","2 FARRER PARK ROAD FARRER PARK PRIMARY SCHOOL SINGAPORE 217567","217567","KALLANG/WHAMPOA","KALLANG/WHAMPOA","1.31236867681371","103.850766402965"
"Fengshan Primary School","307 BEDOK NORTH ROAD FENGSHAN PRIMARY SCHOOL SINGAPORE 469680","469680","BEDOK","BEDOK","1.32980598760785","103.931710293058"
"Fern Green Primary School","70 FERNVALE LINK FERN GREEN PRIMARY SCHOOL SINGAPORE 797538","797538","SENGKANG","SENGKANG","1.39726966050479","103.880330305684"
"Fernvale Primary School","1 FERNVALE LANE FERNVALE PRIMARY SCHOOL SINGAPORE 797701","797701","SENGKANG","SENGKANG","1.39030227963797","103.874445458032"
"First Toa Payoh Primary School","7 LORONG 8 TOA PAYOH FIRST TOA PAYOH PRIMARY SCHOOL SINGAPORE 319252","319252","TOA PAYOH","TOA PAYOH","1.34032299499938","103.855529906182"
"Frontier Primary School","20 JURONG WEST STREET 61 FRONTIER PRIMARY SCHOOL SINGAPORE 648200","648200","JURONG WEST","JURONG WEST","1.33641298743234","103.69970173931"
"Fuchun Primary School","23 WOODLANDS AVENUE 1 FUCHUN PRIMARY SCHOOL SINGAPORE 739063","739063","WOODLANDS","WOODLANDS","1.43047990810126","103.778192944298"
"Fuhua Primary School","65 JURONG EAST STREET 13 AMP-MERCU STUDENT CARE CENTRE @ FUHUA PRIMARY SCHOOL SINGAPORE 609647","609647","JURONG EAST","JURONG EAST","1.33659726465816","103.736089481883"
"Gan Eng Seng Primary School","100 REDHILL CLOSE GAN ENG SENG PRIMARY SCHOOL SINGAPORE 158901","158901","BUKIT MERAH","BUKIT MERAH","1.28559516494962","103.815547410064"
"Geylang Methodist School (Primary)","4 GEYLANG EAST CENTRAL CHRISTALITE METHODIST CHAPEL SINGAPORE 389706","389706","GEYLANG","GEYLANG","1.31814416827374","103.883628501601"
"Gongshang Primary School","1 TAMPINES STREET 42 COMMIT LEARNING SCHOOLHOUSE @ GONGSHANG PRIMARY SCHOOL SINGAPORE 529176","529176","TAMPINES","TAMPINES","1.35711606790292","103.949144797277"
"Greendale Primary School","50 EDGEDALE PLAINS GREENDALE PRIMARY SCHOOL SINGAPORE 828848","828848","PUNGGOL","PUNGGOL","1.39648195114256","103.91233462071"
"Greenridge Primary School","11 JELAPANG ROAD GREENRIDGE PRIMARY SCHOOL SINGAPORE 677744","677744","BUKIT PANJANG","BUKIT PANJANG","1.3858892193692","103.767794469258"
"Greenwood Primary School","11 WOODLANDS DRIVE 62 GREENWOOD PRIMARY SCHOOL SINGAPORE 737942","737942","WOODLANDS","WOODLANDS","1.43989958331782","103.804725587384"
"Haig Girls' School","51 KOON SENG ROAD HAIG GIRLS' SCHOOL SINGAPORE 427072","427072","GEYLANG","GEYLANG","1.31194344271383","103.902902557195"
"Henry Park Primary School","1 HOLLAND GROVE ROAD HENRY PARK PRIMARY SCHOOL SINGAPORE 278790","278790","BUKIT TIMAH","BUKIT TIMAH","1.31667646178347","103.784296227747"
"Holy Innocents' Primary School","5 LORONG LOW KOON HOLY INNOCENTS' PRIMARY SCHOOL SINGAPORE 536451","536451","HOUGANG","HOUGANG","1.36693830877349","103.894114899795"
"Hong Wen School","30 TOWNER ROAD HONG WEN SCHOOL SINGAPORE 327829","327829","KALLANG/WHAMPOA","KALLANG/WHAMPOA","1.32175999964553","103.857628468881"
"Horizon Primary School","61 EDGEDALE PLAINS HORIZON PRIMARY SCHOOL SINGAPORE 828819","828819","PUNGGOL","PUNGGOL","1.399550034492","103.913404855665"
"Hougang Primary School","1 HOUGANG STREET 93 HOUGANG PRIMARY SCHOOL SINGAPORE 534238","534238","HOUGANG","HOUGANG","1.37738245231461","103.880805274557"
"Huamin Primary School","21 YISHUN AVENUE 11 HUAMIN PRIMARY SCHOOL SINGAPORE 768857","768857","YISHUN","YISHUN","1.42697284512936","103.844240226564"
"Innova Primary School","80 WOODLANDS DRIVE 17 INNOVA PRIMARY SCHOOL SINGAPORE 737888","737888","WOODLANDS","WOODLANDS","1.42896700684852","103.790607539185"
"Jiemin Primary School","2 YISHUN STREET 71 JIEMIN PRIMARY SCHOOL SINGAPORE 768515","768515","YISHUN","YISHUN","1.42768847665227","103.830425490093"
"Jing Shan Primary School","5 ANG MO KIO STREET 52 ALPHAJOY STUDENT CARE CENTRE (JING SHAN) SINGAPORE 569228","569228","ANG MO KIO","ANG MO KIO","1.37196445720109","103.851763531681"
"Junyuan Primary School","2 TAMPINES STREET 91 JUNYUAN PRIMARY SCHOOL SINGAPORE 528906","528906","TAMPINES","TAMPINES","1.34787074766746","103.939221709073"
"Jurong Primary School","320 JURONG EAST STREET 32 JURONG PRIMARY SCHOOL SINGAPORE 609476","609476","JURONG EAST","JURONG EAST","1.34843859698946","103.733156566858"
"Jurong West Primary School","30 JURONG WEST STREET 61 JURONG WEST PRIMARY SCHOOL SINGAPORE 648368","648368","JURONG WEST","JURONG WEST","1.33917519796104","103.698803732244"
"Keming Primary School","90 BUKIT BATOK EAST AVENUE 6 KEMING PRIMARY SCHOOL SINGAPORE 659762","659762","BUKIT BATOK","BUKIT BATOK","1.34552849960874","103.756449399351"
"Kheng Cheng School","15 LORONG 3 TOA PAYOH KHENG CHENG SCHOOL SINGAPORE 319580","319580","TOA PAYOH","TOA PAYOH","1.3373381935639","103.847148501824"
"Kong Hwa School","350 GUILLEMARD ROAD KONG HWA SCHOOL SINGAPORE 399772","399772","GEYLANG","GEYLANG","1.31099674009193","103.888352029067"
"Kranji Primary School","11 CHOA CHU KANG STREET 54 KRANJI PRIMARY SCHOOL SINGAPORE 689189","689189","CHOA CHU KANG","CHOA CHU KANG","1.39356050497104","103.747362720939"
"Kuo Chuan Presbyterian Primary School","8 BISHAN STREET 13 KUO CHUAN PRESBYTERIAN PRIMARY SCHOOL SINGAPORE 579793","579793","BISHAN","BISHAN","1.34939813669536","103.855018233311"
"Lakeside Primary School","161 CORPORATION WALK LAKESIDE PRIMARY SCHOOL SINGAPORE 618310","618310","JURONG WEST","JURONG WEST","1.33820397704287","103.718089546664"
"Lianhua Primary School","2 BUKIT BATOK STREET 52 LIANHUA PRIMARY SCHOOL SINGAPORE 659243","659243","BUKIT BATOK","BUKIT BATOK","1.35424191127295","103.754165828711"
"Maha Bodhi School","10 UBI AVENUE 1 AFTER SCHOOL @ MAHA BODHI SCHOOL SINGAPORE 408931","408931","GEYLANG","GEYLANG","1.32858023873554","103.901306904157"
"Maris Stella High School (Primary Section)","25 MOUNT VERNON ROAD CATHOLIC KINDERGARTEN SINGAPORE 368051","368051","TOA PAYOH","TOA PAYOH","1.34139181236127","103.877740713449"
"Marsiling Primary School","31 WOODLANDS CENTRE ROAD MARSILING PRIMARY SCHOOL SINGAPORE 738927","738927","WOODLANDS","WOODLANDS","1.43383904037059","103.773643013846"
"Marymount Convent School","20 MARYMOUNT ROAD GOOD SHEPHERD STUDENT CARE SINGAPORE 297754","297754","TOA PAYOH","TOA PAYOH","1.34043840661368","103.839811736775"
"Mayflower Primary School","200 ANG MO KIO AVENUE 5 MAYFLOWER PRIMARY SCHOOL SINGAPORE 569878","569878","ANG MO KIO","ANG MO KIO","1.37637683547682","103.843252803742"
"Mee Toh School","21 EDGEDALE PLAINS GRACELAND STUDENT CARE CENTRE (MEE TOH) SINGAPORE 828867","828867","PUNGGOL","PUNGGOL","1.39485356081865","103.90857257736"
"Meridian Primary School","20 PASIR RIS STREET 71 LIFE STUDENT CARE - HAPPY MERIDIANS SINGAPORE 518798","518798","PASIR RIS","PASIR RIS","1.37550677054835","103.934953276155"
"Methodist Girls' School (Primary)","11 BLACKMORE DRIVE COMMIT LEARNING SCHOOHHOUSE @ METHODIST GIRLS' SCHOOL SINGAPORE 599986","599986","BUKIT TIMAH","BUKIT TIMAH","1.33266213599636","103.783382114018"
"Montfort Junior School","52 HOUGANG AVENUE 8 LEARNING STUDIO EDUCARE BY ZENITANT (MONTFORT JUNIOR SCHOOL) SINGAPORE 538786","538786","HOUGANG","HOUGANG","1.37362445234082","103.889741457901"
"Nan Chiau Primary School","50 ANCHORVALE LINK NAN CHIAU PRIMARY SCHOOL SINGAPORE 545080","545080","SENGKANG","SENGKANG","1.39221149906592","103.891180928186"
"Nan Hua Primary School","30 JALAN LEMPENG NAN HUA PRIMARY SCHOOL SINGAPORE 128806","128806","CLEMENTI","CLEMENTI","1.31920159956387","103.761095065761"
"Nanyang Primary School","52 KING'S ROAD LEARNING BLISS @ NANYANG PRIMARY SINGAPORE 268097","268097","BUKIT TIMAH","BUKIT TIMAH","1.32107094241153","103.807681852799"
"Naval Base Primary School","7 YISHUN AVENUE 4 MOE KINDERGARTEN @ NAVAL BASE SINGAPORE 769028","769028","YISHUN","YISHUN","1.41590195697649","103.839100590207"
"New Town Primary School","300 TANGLIN HALT ROAD NEW TOWN CAREHUT SINGAPORE 148812","148812","QUEENSTOWN","QUEENSTOWN","1.29981138884057","103.799964819895"
"Ngee Ann Primary School","344 MARINE TERRACE NASCANS NGEE ANN SCC SINGAPORE 449149","449149","MARINE PARADE","MARINE PARADE","1.30553224180437","103.917570005713"
"North Spring Primary School","1 RIVERVALE STREET NORTH SPRING PRIMARY SCHOOL SINGAPORE 545088","545088","SENGKANG","SENGKANG","1.38706146494859","103.903202683028"
"North View Primary School","210 YISHUN AVENUE 6 MOE KINDERGARTEN @ NORTH VIEW SINGAPORE 768960","768960","YISHUN","YISHUN","1.42745159462566","103.848378442893"
"North Vista Primary School","20 COMPASSVALE LINK MOE KINDERGARTEN @ NORTH VISTA SINGAPORE 544974","544974","SENGKANG","SENGKANG","1.38255066171151","103.89626457548"
"Northland Primary School","15 YISHUN AVENUE 4 NASCANS NORTHLAND STUDENT CARE CENTRE SINGAPORE 769026","769026","YISHUN","YISHUN","1.42130404159807","103.840792923345"
"Northoaks Primary School","61 SEMBAWANG DRIVE MOE KINDERGARTEN @ NORTHOAKS SINGAPORE 757622","757622","SEMBAWANG","SEMBAWANG","1.45732867302094","103.814075611175"
"Northshore Primary School","30 NORTHSHORE DRIVE MOE KINDERGARTEN @ NORTHSHORE SINGAPORE 828671","828671","PUNGGOL","PUNGGOL","1.41842322079348","103.905147201163"
"Oasis Primary School","71 EDGEFIELD PLAINS MOE KINDERGARTEN @ OASIS SINGAPORE 828716","828716","PUNGGOL","PUNGGOL","1.40507184758584","103.911200193835"
"Opera Estate Primary School","48 FIDELIO STREET KNOWLEDGE PARK EDUCARE PTE LTE (OPERA ESTATE PRIMARY SCHOOL) SINGAPORE 458436","458436","BEDOK","BEDOK","1.31996876377748","103.923752668632"
"Palm View Primary School","150 COMPASSVALE BOW PALM VIEW PRIMARY SCHOOL SINGAPORE 544822","544822","SENGKANG","SENGKANG","1.38376923022123","103.891354675017"
"Park View Primary School","60 PASIR RIS DRIVE 1 LIFE STUDENT CARE - PARK VIEW PRIMARY SINGAPORE 519524","519524","PASIR RIS","PASIR RIS","1.37801687647812","103.9392021807"
"Pasir Ris Primary School","5 PASIR RIS STREET 21 COMMIT LEARNING SCHOOLHOUSE @ PASIR RIS PRIMARY SINGAPORE 518968","518968","PASIR RIS","PASIR RIS","1.37245132722087","103.962922699031"
"Paya Lebar Methodist Girls' School (Primary)","298 LORONG AH SOO COMMIT LEARNING SCHOOLHOUSE @ PAYA LEBAR METHODIST GIRLS' SCHOOL SINGAPORE 536741","536741","HOUGANG","HOUGANG","1.3502545600894","103.884846876112"
"Pei Chun Public School","16 LORONG 7 TOA PAYOH ACE @ WORK SCHOOLCARE PTE LTD (PEI CHUN PUBLIC SCHOOL) SINGAPORE 319320","319320","TOA PAYOH","TOA PAYOH","1.33677864390672","103.855341310212"
"Pei Hwa Presbyterian Primary School","7 PEI WAH AVENUE ACE @ WORK ENRICHMENT PTE LTD (PEI HWA PRESBYTERIAN PRIMARY) SINGAPORE 597610","597610","BUKIT TIMAH","BUKIT TIMAH","1.33807302121151","103.776250903095"
"Pei Tong Primary School","15 CLEMENTI AVENUE 5 LEARNING LEAP PTE LTD (PEI TONG PRIMARY SCHOOL) SINGAPORE 129857","129857","CLEMENTI","CLEMENTI","1.31666529308968","103.767438999533"
"Peiying Primary School","651 YISHUN RING ROAD COMMIT LEARNING SCHOOLHOUSE @ PEIYING PRIMARY SCHOOL SINGAPORE 768687","768687","YISHUN","YISHUN","1.41741627551251","103.830143209875"
"Pioneer Primary School","80 TENGAH GARDEN AVENUE PIONEER PRIMARY SCHOOL (U/C) SINGAPORE 699915","699915","CHOA CHU KANG","CHOA CHU KANG","1.35442592930738","103.732790920197"
"Poi Ching School","21 TAMPINES STREET 71 NASCANS @ POI CHING SINGAPORE 529067","529067","TAMPINES","TAMPINES","1.35765121877679","103.935246486174"
"Princess Elizabeth Primary School","30 BUKIT BATOK WEST AVENUE 3 BIG HEART STUDENT CARE (PRINCESS ELIZABETH PRIMARY SCHOOL) SINGAPORE 659163","659163","BUKIT BATOK","BUKIT BATOK","1.34919098857585","103.740719208011"
"Punggol Cove Primary School","52 SUMANG WALK KNOWLEDGE PARK EDUCARE PTE LTD (PUNGGOL COVE PRIMARY SCHOOL) SINGAPORE 828674","828674","PUNGGOL","PUNGGOL","1.41158455562454","103.89890448429"
"Punggol Green Primary School","98 PUNGGOL WALK LEARNING LEAP PTE LTD (PUNGGOL GREEN PRIMARY SCHOOL) SINGAPORE 828772","828772","PUNGGOL","PUNGGOL","1.40172590450528","103.898794262307"
"Punggol Primary School","61 HOUGANG AVENUE 8 AFTERSCHOOL @ PUNGGOL PRIMARY SCHOOL SINGAPORE 538787","538787","HOUGANG","HOUGANG","1.37820062547641","103.894667159512"
"Punggol View Primary School","9 PUNGGOL PLACE LITTLE PROFESSORS LEARNING CENTRE PTE LTD (PUNGGOL VIEW PRIMARY) SINGAPORE 828845","828845","PUNGGOL","PUNGGOL","1.40505250226058","103.905299026568"
"Qifa Primary School","50 WEST COAST AVENUE AMP-MERCU STUDENT CARE CENTRE @ QIFA PRIMARY SCHOOL SINGAPORE 128104","128104","CLEMENTI","CLEMENTI","1.3132658326807","103.756629101811"
"Qihua Primary School","5 WOODLANDS STREET 81 POWERLIFE STUDENT SERVICES @ QIHUA PRIMARY SCHOOL SINGAPORE 738525","738525","WOODLANDS","WOODLANDS","1.44203596557592","103.788339762066"
"Queenstown Primary School","310 MARGARET DRIVE QUEENSTOWN CAREHUT SINGAPORE 149303","149303","QUEENSTOWN","QUEENSTOWN","1.29552905587752","103.807648475656"
"Radin Mas Primary School","1 BUKIT PURMEI AVENUE ACE @ WORK ENRICHMENT PTE LTD (RADIN MAS PRIMARY) SINGAPORE 099840","099840","BUKIT MERAH","BUKIT MERAH","1.27489701529771","103.824115781658"
"Raffles Girls' Primary School","21 HILLCREST ROAD KNOWLEDGE PARK EDUCARE (SC) PTE LTD (RAFFLES GIRLS) SINGAPORE 289072","289072","BUKIT TIMAH","BUKIT TIMAH","1.33004178068277","103.806397828938"
"Red Swastika School","350 BEDOK NORTH AVENUE 3 COMMIT LEARNING SCHOOLHOUSE @ RED SWASTIKA SCHOOL SINGAPORE 469719","469719","BEDOK","BEDOK","1.33405659580859","103.934317528484"
"River Valley Primary School","2 RIVER VALLEY GREEN AFTERSCHOOL @ RIVER VALLEY PRIMARY SCHOOL SINGAPORE 237993","237993","CENTRAL AREA","CENTRAL AREA","1.29418347842837","103.836018941571"
"Riverside Primary School","110 WOODLANDS CRESCENT MERCU STUDENT CARE CENTRE @ RIVERSIDE PRIMARY SCHOOL SINGAPORE 737803","737803","WOODLANDS","WOODLANDS","1.44700426493785","103.801889031334"
"Rivervale Primary School","80 RIVERVALE DRIVE PRO-TEACH SCHOOLCARE (RIVERVALE) LLP SINGAPORE 545092","545092","SENGKANG","SENGKANG","1.39333506298213","103.904545253288"
"Rosyth School","21 SERANGOON NORTH AVENUE 4 KNOWLEDGE PARK EDUCARE (ROSYTH) PTE LTD SINGAPORE 555855","555855","SERANGOON","SERANGOON","1.3728583654058","103.87477170399"
"Rulang Primary School","6 JURONG WEST STREET 52 RULANG PRIMARY SCHOOL SINGAPORE 649295","649295","JURONG WEST","JURONG WEST","1.34673868889096","103.718457955487"
"Sembawang Primary School","10 SEMBAWANG DRIVE MOE KINDERGARTEN @ SEMBAWANG SINGAPORE 757715","757715","SEMBAWANG","SEMBAWANG","1.4457453096024","103.821152676215"
"Seng Kang Primary School","21 COMPASSVALE WALK QSF - THE ENABLERS STUDENT CARE @ SENGKANG PRIMARY SINGAPORE 545166","545166","SENGKANG","SENGKANG","1.38925044778224","103.899527879229"
"Sengkang Green Primary School","15 FERNVALE ROAD MOE KINDERGARTEN @ SENGKANG GREEN SINGAPORE 797636","797636","SENGKANG","SENGKANG","1.3925400930811","103.874984869551"
"Shuqun Primary School","8 JURONG WEST STREET 51 MOE KINDERGARTEN @ SHUQUN SINGAPORE 649332","649332","JURONG WEST","JURONG WEST","1.34686967259067","103.721559387203"
"Si Ling Primary School","61 WOODLANDS AVENUE 1 SI LING PRIMARY SCHOOL SINGAPORE 739067","739067","WOODLANDS","WOODLANDS","1.43240935732525","103.786035065192"
"Singapore Chinese Girls' Primary School","190 DUNEARN ROAD SINGAPORE CHINESE GIRLS' SCHOOL SINGAPORE 309437","309437","CENTRAL AREA","CENTRAL AREA","1.3206340835184","103.828164966953"
"South View Primary School","6 CHOA CHU KANG CENTRAL PRO-TEACH SCHOOLCARE (SOUTH VIEW PRIMARY) SINGAPORE 689762","689762","CHOA CHU KANG","CHOA CHU KANG","1.38143123987698","103.747153671"
"Springdale Primary School","71 ANCHORVALE LINK MOE KINDERGARTEN @ SPRINGDALE SINGAPORE 544799","544799","SENGKANG","SENGKANG","1.39528544463377","103.889416413501"
"St Andrew's School (Junior)","2 FRANCIS THOMAS DRIVE ST ANDREW'S SCHOOL (JUNIOR) SINGAPORE 359337","359337","TOA PAYOH","TOA PAYOH","1.33140255308868","103.865117134385"
"St. Anthony's Canossian Primary School","1602 BEDOK NORTH AVENUE 4 SAINT ANTHONY'S CANOSSIAN PRIMARY SCHOOL SINGAPORE 469701","469701","BEDOK","BEDOK","1.3347253730189","103.941234868202"
"St. Anthony's Primary School","30 BUKIT BATOK STREET 32 SAINT ANTHONY'S PRIMARY SCHOOL SINGAPORE 659401","659401","BUKIT BATOK","BUKIT BATOK","1.36411948475833","103.749251919049"
"St. Gabriel's Primary School","220 LORONG CHUAN MORNING STAR COMMUNITY SERVICES (SGPS) SINGAPORE 556742","556742","SERANGOON","SERANGOON","1.34930766795555","103.862309899986"
"St. Hilda's Primary School","2 TAMPINES AVENUE 3 CHAPEL OF CHRIST THE REDEEMER SINGAPORE 529706","529706","TAMPINES","TAMPINES","1.34967978969837","103.937016363397"
"St. Joseph's Institution Junior","3 ESSEX ROAD MORNING STAR COMMUNITY SERVICES (ST JOSEPH'S INSTITUTION JUNIOR) SINGAPORE 309331","309331","CENTRAL AREA","CENTRAL AREA","1.31781476118551","103.845633334522"
"St. Margaret's School (Primary)","136 SOPHIA ROAD CHAPEL OF CHRIST THE KING SINGAPORE 228197","228197","CENTRAL AREA","CENTRAL AREA","1.30414407358332","103.845820266438"
"St. Stephen's School","20 SIGLAP VIEW SAINT STEPHEN'S SCHOOL SINGAPORE 455789","455789","BEDOK","BEDOK","1.31878997295135","103.917258129598"
"Tampines North Primary School","30 TAMPINES AVENUE 9 BIG HEART STUDENT CARE (TAMPINES NORTH PRIMARY SCHOOL) SINGAPORE 529565","529565","TAMPINES","TAMPINES","1.36048786025607","103.948768900518"
"Tampines Primary School","250 TAMPINES STREET 12 AMP-MERCU STUDENT CARE CENTRE @ TAMPINES PRIMARY SCHOOL SINGAPORE 529426","529426","TAMPINES","TAMPINES","1.3504863946694","103.943573098509"
"Tanjong Katong Primary School","10 SERAYA ROAD AFTERSCHOOL @ TANJONG KATONG PRIMARY SCHOOL SINGAPORE 437259","437259","MARINE PARADE","MARINE PARADE","1.30498489044822","103.899999965407"
"Tao Nan School","49 MARINE CRESCENT TAO NAN SCHOOL SINGAPORE 449761","449761","MARINE PARADE","MARINE PARADE","1.30528528687321","103.911553152326"
"Teck Ghee Primary School","1 ANG MO KIO STREET 32 NASCANS @ TECK GHEE SINGAPORE 569299","569299","ANG MO KIO","ANG MO KIO","1.36565018546903","103.851009800453"
"Teck Whye Primary School","11 TECK WHYE WALK SHG STUDENT CARE (TECK WHYE PRIMARY SCHOOL) SINGAPORE 688261","688261","CHOA CHU KANG","CHOA CHU KANG","1.38388660469396","103.753924558586"
"Telok Kurau Primary School","50 BEDOK RESERVOIR ROAD KOWABUNGA KIDZ TREEHOUSE @ TELOK KURAU PRIMARY SINGAPORE 479239","479239","BEDOK","BEDOK","1.33109611001931","103.911005345855"
"Temasek Primary School","501 BEDOK SOUTH AVENUE 3 MOE KINDERGARTEN @ TEMASEK SINGAPORE 469300","469300","BEDOK","BEDOK","1.31720341663064","103.94575943784"
"Townsville Primary School","3 ANG MO KIO AVENUE 10 PRO-TEACH SCHOOLCARE (TOWNSVILLE) LLP SINGAPORE 569730","569730","ANG MO KIO","ANG MO KIO","1.35994649477568","103.853768994775"
"Unity Primary School","21 CHOA CHU KANG CRESCENT ALPHAJOY STUDENT CARE CENTRE SINGAPORE 688268","688268","CHOA CHU KANG","CHOA CHU KANG","1.40278303219036","103.746801233973"
"Valour Primary School","49 PUNGGOL CENTRAL MOE KINDERGARTEN @ VALOUR SINGAPORE 828728","828728","PUNGGOL","PUNGGOL","1.40744168163777","103.898762173662"
"Waterway Primary School","70 PUNGGOL DRIVE KNOWLEDGE PARK EDUCARE PTE LTD (WATERWAY PRIMARY) SINGAPORE 828802","828802","PUNGGOL","PUNGGOL","1.39889261226315","103.918585924582"
"Wellington Primary School","10 WELLINGTON CIRCLE MOE KINDERGARTEN @ WELLINGTON SINGAPORE 757702","757702","SEMBAWANG","SEMBAWANG","1.45168517614776","103.822516208087"
"West Grove Primary School","1 JURONG WEST STREET 72 NASCANS @ WEST GROVE SINGAPORE 649223","649223","JURONG WEST","JURONG WEST","1.34471211768915","103.698964212988"
"West Spring Primary School","60 BUKIT PANJANG RING ROAD MOE KINDERGARTEN @ WEST SPRING SINGAPORE 679946","679946","BUKIT PANJANG","BUKIT PANJANG","1.38917971808454","103.76639772288"
"West View Primary School","31 SENJA ROAD BIG HEART STUDENT CARE (WEST VIEW PRIMARY SCHOOL) SINGAPORE 677742","677742","BUKIT PANJANG","BUKIT PANJANG","1.38378546546228","103.760273432258"
"Westwood Primary School","1 JURONG WEST STREET 73 MOE KINDERGARTEN @ WESTWOOD SINGAPORE 649188","649188","JURONG WEST","JURONG WEST","1.3477109654722","103.700467520791"
"White Sands Primary School","2 PASIR RIS STREET 11 LEARNING LEAP PTE LTD (WHITE SANDS PRIMARY SCHOOL) SINGAPORE 519075","519075","PASIR RIS","PASIR RIS","1.36563610941695","103.960861814678"
"Woodgrove Primary School","2 WOODLANDS DRIVE 14 COMMIT LEARNING SCHOOLHOUSE @ WOODGROVE PRIMARY SCHOOL SINGAPORE 738079","738079","WOODLANDS","WOODLANDS","1.43273620725049","103.79023031392"
"Woodlands Primary School","10 WOODLANDS DRIVE 50 COMMIT LEARNING SCHOOLHOUSE @ WOODLANDS PRIMARY SCHOOL SINGAPORE 738853","738853","WOODLANDS","WOODLANDS","1.43658270720199","103.791791282236"
"Woodlands Ring Primary School","11 WOODLANDS RING ROAD POWERLIFE STUDENT SERVICES SINGAPORE 738240","738240","WOODLANDS","WOODLANDS","1.43485179380236","103.79741434351"
"Xinghua Primary School","45 HOUGANG AVENUE 1 HOME-IN-SCHOOL CONNECTION STUDENT CARE CENTRE SINGAPORE 538882","538882","HOUGANG","HOUGANG","1.35799653782463","103.890216355459"
"Xingnan Primary School","5 JURONG WEST STREET 91 SHG STUDENT CARE (XINGNAN PRIMARY SCHOOL) SINGAPORE 649036","649036","JURONG WEST","JURONG WEST","1.34270639669225","103.687588478681"
"Xinmin Primary School","9 HOUGANG AVENUE 8 RAFFLES STUDENT CARE CENTRE LLP (XINMIN PRIMARY) SINGAPORE 538784","538784","HOUGANG","HOUGANG","1.37176798317468","103.88280991785"
"Xishan Primary School","8 YISHUN STREET 21 XISHAN PRIMARY SCHOOL SINGAPORE 768611","768611","YISHUN","YISHUN","1.43347186925064","103.837755319448"
"Yangzheng Primary School","15 SERANGOON AVENUE 3 BIG HEART STUDENT CARE @ YANGZHENG SINGAPORE 556108","556108","SERANGOON","SERANGOON","1.3489768083841","103.868467129954"
"Yew Tee Primary School","10 CHOA CHU KANG STREET 64 PRO-TEACH SCHOOLCARE (YEW TEE PRIMARY) SINGAPORE 689100","689100","CHOA CHU KANG","CHOA CHU KANG","1.39672603497195","103.751817992962"
"Yio Chu Kang Primary School","1 HOUGANG STREET 51 YIO CHU KANG PRIMARY SCHOOL SINGAPORE 538720","538720","HOUGANG","HOUGANG","1.37793264345276","103.885643682171"
"Yishun Primary School","500 YISHUN RING ROAD MOE KINDERGARTEN @ YISHUN SINGAPORE 768679","768679","YISHUN","YISHUN","1.43397617334964","103.834050796658"
"Yu Neng Primary School","56 BEDOK NORTH STREET 3 BIG HEART STUDENT CARE @ YU NENG SINGAPORE 469623","469623","BEDOK","BEDOK","1.33398037894072","103.932015036296"
"Yuhua Primary School","158 JURONG EAST STREET 24 PRO-TEACH SCHOOLCARE (YUHUA) SINGAPORE 609558","609558","JURONG EAST","JURONG EAST","1.34291981622016","103.740861148879"
"Yumin Primary School","3 TAMPINES STREET 21 SHG STUDENT CARE (YUMIN PRIMARY SCHOOL) SINGAPORE 529393","529393","TAMPINES","TAMPINES","1.35131569890862","103.950551091373"
"Zhangde Primary School","51 JALAN MEMBINA YMCA STUDENT CARE CENTRE @ ZHANGDE SINGAPORE 169485","169485","BUKIT MERAH","BUKIT MERAH","1.28421153855474","103.825951884637"
"Zhenghua Primary School","9 FAJAR ROAD MOE KINDERGARTEN @ ZHENGHUA SINGAPORE 679002","679002","BUKIT PANJANG","BUKIT PANJANG","1.37942873617052","103.76970317201"
"Zhonghua Primary School","12 SERANGOON AVENUE 4 LEARNING STUDIO BY ZENITANT (ZHONGHUA PRIMARY SCHOOL) SINGAPORE 556095","556095","SERANGOON","SERANGOON","1.36026072476019","103.869712517383"
